[{"OBJECT_NAME":"NIGERIASAT-2","OBJECT_ID":"2011-044B","EPOCH":"2026-03-09T22:16:13.230624","MEAN_MOTION":14.70414983,"ECCENTRICITY":0.00315152,"INCLINATION":97.8701,"RA_OF_ASC_NODE":49.4656,"ARG_OF_PERICENTER":79.9218,"MEAN_ANOMALY":4.7488,"EPHEMERIS_TYPE":0,"CLASSIFICATION_TYPE":"U","NORAD_CAT_ID":37789,"ELEMENT_SET_NO":999,"REV_AT_EPOCH":77598,"BSTAR":0.00015542996,"MEAN_MOTION_DOT":9.0e-6,"MEAN_MOTION_DDOT":0},{"OBJECT_NAME":"TITAN 3C TRANSTAGE DEB","OBJECT_ID":"1965-082QJ","EPOCH":"2026-03-09T21:48:44.529408","MEAN_MOTION":14.78635581,"ECCENTRICITY":0.00241297,"INCLINATION":32.2286,"RA_OF_ASC_NODE":290.9393,"ARG_OF_PERICENTER":266.6123,"MEAN_ANOMALY":93.1768,"EPHEMERIS_TYPE":0,"CLASSIFICATION_TYPE":"U","NORAD_CAT_ID":3488,"ELEMENT_SET_NO":999,"REV_AT_EPOCH":18321,"BSTAR":0.00028216073,"MEAN_MOTION_DOT":2.157e-5,"MEAN_MOTION_DDOT":0}]
